GLOBALSTAR M063         
1 26081U 00008A   25185.67956390 -.00000116  00000+0 -49638-3 0  9993
2 26081  51.9966  65.5033 0004862 359.3422  34.9144 11.86174228159713
GLOBALSTAR M060         
1 26083U 00008C   25185.45478541 -.00000040  00000+0  51029-3 0  9990
2 26083  52.0040   7.4537 0003586 146.8402 227.0149 12.17667407154472
GLOBALSTAR M064         
1 26084U 00008D   25185.29981236 -.00000061  00000+0  31706-3 0  9996
2 26084  52.0001 165.1289 0001269  79.4428 280.6547 11.88534756169134
GLOBALSTAR M072         
1 31574U 07020D   25185.63300714 -.00000077  00000+0  10007-3 0  9999
2 31574  51.9951 305.5262 0000876  39.7757  60.8081 11.91650001833544
GLOBALSTAR M071         
1 31576U 07020F   25185.28650904 -.00000111  00000+0 -19800-3 0  9991
2 31576  52.0030 182.9132 0000661 149.6812 316.6162 12.18256090497025
